1 26958U 01049B   20007.39691324 -.00000462  00000-0 -34284-4 0  9999
2 26958  97.6970 324.7192 0074375  81.7408 279.2237 14.95450538991120
1 26959U 01049C   20007.49891117  .00001310  00000-0  38353-4 0  9995
2 26959  97.8603  29.8327 0007153 319.6458  40.4253 15.37294391  9741
1 27844U 03031E   20006.91927986  .00000039  00000-0  36998-4 0  9992
2 27844  98.6833  17.0987 0010179 160.4727 199.6843 14.22214492856999
1 27848U 03031J   20006.82852152  .00000031  00000-0  33983-4 0  9991
2 27848  98.6906  17.5472 0009871 172.2276 187.9056 14.21804609856861
1 29252U 06029A   20006.62830675  .00000509  00000-0  34919-4 0  9996
2 29252  64.5225 114.0660 0027139 199.8267 160.1804 15.17984243743387
1 30776U 07006E   20006.69119149  .00002864  00000-0  78539-4 0  9990
2 30776  35.4338 240.7516 0001959 173.1908 186.8845 15.37023116711771
1 31789U 07028A   20007.47820960  .00000399  00000-0  29910-4 0  9996
2 31789  64.5042 152.5636 0052393 261.3797  98.1387 15.17123567690599
1 35684U 09041D   20007.50719526  .00000044  00000-0  13621-4 0  9999
2 35684  98.2542 341.7678 0046634 334.3357  25.5539 14.79246220563241
1 35686U 09041F   20007.13429394  .00000063  00000-0  13514-4 0  9993
2 35686  98.2079  58.8664 0072155 216.2579 143.3735 14.87353076566001
1 36037U 09059B   20006.77043339  .00000002  00000-0  11208-4 0  9994
2 36037  98.2261 199.1737 0013012 345.8069  14.2760 14.53088385539707
1 37792U 11044E   20007.46716914  .00000050  00000-0  15792-4 0  9998
2 37792  98.4149 199.8177 0057464 322.3462  37.3729 14.75360764451605
1 37793U 11044F   20006.86560821  .00000024  00000-0  12545-4 0  9990
2 37793  98.4078 175.7031 0046876 359.1989 136.5234 14.72425841450658
1 38710U 12039D   20007.08831315  .00003168  00000-0  57524-4 0  9997
2 38710  97.6156  25.2801 0004148  64.1929 295.9749 15.50410099418722
1 39159U 13021A   20007.43137027 -.00000030  00000-0  52124-5 0  9993
2 39159  98.4874  70.9973 0004507 160.9370 199.1978 14.22981018346469
1 39380U 13064A   20007.20044400  .00000707  00000-0  25018-4 0  9994
2 39380  40.5016 331.5449 0004203 211.8553 148.2008 15.37336515343455
1 39416U 13066A   20006.59925431  .00000065  00000-0  13779-4 0  9997
2 39416  97.5328  24.5211 0042545  61.7612 298.7888 14.83930601331649
1 39425U 13066K   20007.51444483  .00000063  00000-0  14268-4 0  9995
2 39425  97.5521  16.0661 0053447  84.7493 275.9816 14.81151264331190
1 40014U 14033E   20007.46627954 -.00000442  00000-0 -33926-4 0  9991
2 40014  98.0421 324.8377 0032791 107.5136 252.9658 14.95371409302807
1 40016U 14033G   20006.90311205  .00000016  00000-0  96184-5 0  9991
2 40016  97.7328 235.7705 0048991 151.3173 209.0748 14.75266874298795
1 40018U 14033J   20007.46533163  .00000017  00000-0  10748-4 0  9996
2 40018  97.7192 216.3761 0071004 196.2957 163.5967 14.69959163297735
1 40019U 14033K   20007.19917118  .00000046  00000-0  16121-4 0  9996
2 40019  97.7275 206.2696 0083256 224.8925 134.5528 14.67019594297158
1 40076U 14037H   20007.04107467  .00000698  00000-0  90252-4 0  9995
2 40076  98.4363 177.4990 0008310  71.2229 288.9873 14.84350683297379
1 40144U 14053B   20007.46003764  .00000631  00000-0  21090-4 0  9991
2 40144  97.2614  93.0740 0011750 159.1036 257.2790 15.34601209298211
1 42829U 17042E   20007.48691164  .00000171  00000-0  22547-4 0  9990
2 42829  97.5413 256.6396 0015709 103.1655 257.1317 14.91042513135157
1 42831U 17042G   20006.93189829 -.00000014  00000-0  39305-5 0  9990
2 42831  97.5423 256.2112 0015563 105.0654 255.2288 14.91074566135071
1 43765U 18099H   20007.20200124  .00000195  00000-0  22494-4 0  9992
2 43765  97.7223  81.8661 0015409  24.3755 335.8192 14.96047876 59717
1 43794U 18099AN  20007.46992415  .00000245  00000-0  26934-4 0  9992
2 43794  97.7223  82.1302 0015461  23.6927 336.5003 14.96046928 59745
1 43799U 18099AT  20006.86776065  .00000176  00000-0  20847-4 0  9991
2 43799  97.7223  81.4537 0015408  25.2479 334.9492 14.96046754 60409
